satname,norad_id,inclination_deg,eccentricity,mean_motion_rev_per_day,perigee_km,apogee_km,l1,l2
STARLINK-1008,44714,53.1537,0.0001898,15.46688006,425.13120658583557,427.7142174525188,1 44714U 19074B   26133.57663491  .00010673  00000+0  21853-3 0  9995,2 44714  53.1537 233.9138 0001898  23.3631 336.7463 15.46688006358854
STARLINK-1012,44718,53.1582,0.0001567,15.46893786,424.75305459770607,426.8854144816105,1 44718U 19074F   26133.77220242  .00020791  00000+0  41411-3 0  9998,2 44718  53.1582 233.2978 0001567  14.2137 345.8915 15.46893786358874
STARLINK-1017,44723,53.049,0.000416,15.29630063,474.0656243315898,479.76902953159697,1 44723U 19074L   26133.66680049  .00028268  00000+0  97970-3 0  9995,2 44723  53.0490 230.3490 0004160 313.5143  46.5510 15.29630063358894
STARLINK-1019,44724,53.0184,0.000425,16.39588322,164.1162158456973,169.6794954730076,1 44724U 19074M   26133.97929051  .06500544  12374-4  49774-3 0  9998,2 44724  53.0184 161.0631 0004250 290.6942  69.3648 16.39588322359870
STARLINK-1020,44725,53.1597,0.0001963,15.51122852,412.11330173539864,414.7796774134058,1 44725U 19074N   26133.74489023  .00050387  00000+0  85181-3 0  9993,2 44725  53.1597 258.3673 0001963   3.1268 356.9754 15.51122852358509
STARLINK-1036,44741,53.0432,0.0002143,15.66680831,366.9632515747562,369.85482120595225,1 44741U 19074AE  26133.54665988  .00033462  00000+0  31662-3 0  9995,2 44741  53.0432 231.5483 0002143 268.5936  91.4834 15.66680831358867
STARLINK-1039,44744,53.0624,0.0001489,15.26910598,484.03232951972313,486.0761878765634,1 44744U 19074AH  26133.12801290  .00029360  00000+0  11049-2 0  9998,2 44744  53.0624 277.7193 0001489 336.5540  23.5390 15.26910598358182
STARLINK-1042,44747,53.0413,0.000314,15.52931262,406.0419689432629,410.30377154177495,1 44747U 19074AL  26133.32710169  .00012659  00000+0  20708-3 0  9993,2 44747  53.0413 143.8725 0003140  31.2015 328.9180 15.52931262360101
STARLINK-1043,44748,53.0503,0.0001873,15.58188816,391.63073164126126,394.16716170688414,1 44748U 19074AM  26133.53482603  .00027574  00000+0  36408-3 0  9992,2 44748  53.0503 240.5815 0001873 308.7381  51.3463 15.58188816358749
STARLINK-1046,44751,53.0489,0.0005154,15.52047701,407.24920771616235,414.2471905794446,1 44751U 19074AQ  26133.50978302  .00053622  00000+0  87583-3 0  9992,2 44751  53.0489 260.9124 0005154 348.9123  11.1772 15.52047701358457
STARLINK-1047,44752,53.0684,0.0003567,15.3394278,461.6219193688112,466.50314451489885,1 44752U 19074AR  26133.61232347  .00004928  00000+0  15914-3 0  9991,2 44752  53.0684 202.3735 0003567  67.9701 292.1679 15.33942780359301
STARLINK-1048,44753,53.0458,0.0005936,15.64873047,369.5960656936131,377.6117324890147,1 44753U 19074AS  26133.63803622  .00032304  00000+0  32853-3 0  9994,2 44753  53.0458 212.7629 0005936 336.0067  24.0670 15.64873047359132
STARLINK-1063,44768,53.1568,4.42e-05,15.46646129,426.24477136349014,426.84630529987953,1 44768U 19074BH  26133.84727196  .00025559  00000+0  51115-3 0  9990,2 44768  53.1568 273.6347 0000442  68.8470 291.2585 15.46646129358332
STARLINK-1067,44771,53.0445,0.0005475,15.7114203,351.94520310118514,359.318680092234,1 44771U 19074BL  26133.74217958  .00048625  00000+0  38023-3 0  9995,2 44771  53.0445 245.3428 0005475 292.7790  67.2648 15.71142030358699
STARLINK-1068,44772,53.0443,0.0001904,15.71973509,351.97557016954397,354.538885091426,1 44772U 19074BM  26133.69532495  .00040788  00000+0  30921-3 0  9997,2 44772  53.0443 219.3652 0001904  57.8156 302.3045 15.71973509359044
STARLINK-1114,44927,53.0439,0.0001821,15.61480734,382.14784987340045,384.6103940450166,1 44927U 20001P   26133.93445590  .00055694  00000+0  64072-3 0  9993,2 44927  53.0439  13.3992 0001821  52.5190 307.5988 15.61480734350257
STARLINK-1123,44930,53.1465,0.000252,15.54332942,402.38325628458824,405.801499891144,1 44930U 20001S   26133.91760759  .00055811  00000+0  83921-3 0  9997,2 44930  53.1465  38.8218 0002520 166.9638 193.1439 15.54332942349907
STARLINK-1094,44941,53.1552,0.0001793,15.51054504,412.42823778723596,414.8637711726433,1 44941U 20001AD  26133.95185467  .00038185  00000+0  64997-3 0  9997,2 44941  53.1552  13.0556 0001793 187.8598 172.2384 15.51054504350275
STARLINK-1122,44949,53.1577,0.0001537,15.50832872,413.24907559626627,415.3370686004291,1 44949U 20001AM  26133.70029741  .00050648  00000+0  86502-3 0  9994,2 44949  53.1577  14.8096 0001537 188.0751 172.0234 15.50832872350226
STARLINK-1080,44961,53.0469,0.000171,15.57999966,392.2881537334679,394.6040351517677,1 44961U 20001AZ  26133.55921727  .00064758  00000+0  84834-3 0  9999,2 44961  53.0469 335.6089 0001710 278.8240  81.2577 15.57999966350753
STARLINK-1090,44968,53.1519,0.0001186,15.47430096,423.4402992823634,425.05382478187676,1 44968U 20001BG  26133.95193462  .00055233  00000+0  10614-2 0  9999,2 44968  53.1519   0.7041 0001186 160.2227 199.8828 15.47430096350445
STARLINK-1132,45044,53.1525,7.17e-05,15.52225537,409.74293553545067,410.7163873146983,1 45044U 20006A   26133.87827436  .00061435  00000+0  99548-3 0  9991,2 45044  53.1525 302.9844 0000717 134.6944 225.4125 15.52225537347020
STARLINK-1131,45047,53.1592,0.0001106,15.49065302,418.7073037947348,420.21093205601846,1 45047U 20006D   26132.87407347  .00046374  00000+0  84410-3 0  9995,2 45047  53.1592 340.0391 0001106 219.3570 140.7358 15.49065302346413
STARLINK-1134,45048,53.0272,0.0004911,15.52816815,405.1733924623559,411.83923352437887,1 45048U 20006E   26133.44763380  .00067739  00000+0  10724-2 0  9996,2 45048  53.0272 288.3716 0004911   1.4317 358.6706 15.52816815347177
STARLINK-1156,45054,53.1592,0.0001538,15.32870078,466.20145129817683,468.3070936535905,1 45054U 20006L   26132.86743333  .00030718  00000+0  96177-3 0  9998,2 45054  53.1592 342.5764 0001538 226.6764 133.4109 15.32870078346371
STARLINK-1166,45060,53.0473,0.0001139,15.55512439,399.89133602236507,401.43554676291296,1 45060U 20006S   26133.93623602  .00069531  00000+0  99790-3 0  9999,2 45060  53.0473 319.3463 0001139 234.2380 125.8524 15.55512439346789
STARLINK-1169,45061,53.157,0.0003388,15.35913497,455.892348697972,460.52465641050276,1 45061U 20006T   26133.27978779  .00029385  00000+0  83612-3 0  9994,2 45061  53.1570 339.8102 0003388 192.2813 167.8108 15.35913497346453
STARLINK-1171,45062,53.0427,0.0002104,15.71062251,354.4430685551706,357.27673445132314,1 45062U 20006U   26132.72918780  .00045371  00000+0  35664-3 0  9997,2 45062  53.0427 294.0242 0002104 191.1468 168.9503 15.71062251347039
STARLINK-1133,45064,53.1586,0.0001652,15.33015971,465.6891737331907,467.95074751298125,1 45064U 20006W   26133.88183304  .00036918  00000+0  11474-2 0  9992,2 45064  53.1586 314.6283 0001652 265.1527  94.9286 15.33015971346868
STARLINK-1167,45071,53.1566,0.0002432,15.3514428,458.8288224400849,462.15513157450187,1 45071U 20006AD  26133.72613189  .00034720  00000+0  10098-2 0  9992,2 45071  53.1566 314.8268 0002432 189.7481 170.3476 15.35144280346842
STARLINK-1168,45072,53.1574,0.0001578,15.3304257,465.6606632265466,467.82090665547366,1 45072U 20006AE  26133.73294787  .00028113  00000+0  87673-3 0  9996,2 45072  53.1574 315.5376 0001578 261.3236  98.7587 15.33042570346837
STARLINK-1172,45074,53.157,0.0002408,15.36176055,455.7835126244927,459.07552145909995,1 45074U 20006AG  26133.89547068  .00040186  00000+0  11284-2 0  9996,2 45074  53.1570 313.5573 0002408 198.6647 161.4269 15.36176055346871
STARLINK-1153,45080,53.1593,0.0003201,15.35172599,458.2188580515258,462.5968944813121,1 45080U 20006AN  26132.92882215  .00046612  00000+0  13485-2 0  9997,2 45080  53.1593 318.4756 0003201 207.1869 152.8966 15.35172599346724
STARLINK-1151,45081,53.0491,0.0002315,15.74112635,345.60056206716035,348.71437340572174,1 45081U 20006AP  26133.45018534  .00052682  00000+0  36288-3 0  9993,2 45081  53.0491 279.7425 0002315 231.0774 129.0038 15.74112635347296
STARLINK-1185,45087,53.1604,0.0002219,15.43290388,434.89391823571805,437.91821244811763,1 45087U 20006AV  26133.72679265  .00046345  00000+0  10283-2 0  9998,2 45087  53.1604 296.3384 0002219 283.3870  76.6889 15.43290388347107
STARLINK-1183,45088,53.1595,0.0001169,15.32886554,466.4050007783726,468.00544178970995,1 45088U 20006AW  26133.44869465  .00023511  00000+0  73914-3 0  9992,2 45088  53.1595 301.4448 0001169 283.6120  76.4752 15.32886554347000
STARLINK-1152,45096,53.0361,0.0002381,15.4607234,426.60843884654423,429.84963035222063,1 45096U 20006BE  26133.71871822  .00043450  00000+0  87801-3 0  9995,2 45096  53.0361 257.9044 0002381   7.7587 352.3455 15.46072340347624
STARLINK-1184,45098,53.0534,0.0002543,15.13240041,524.5710176745133,528.0826279748017,1 45098U 20006BG  26133.51840417  .00015932  00000+0  90083-3 0  9991,2 45098  53.0534 311.9289 0002543 340.1698  19.9194 15.13240041346845
STARLINK-1193,45100,53.0483,0.000367,15.65460481,369.4374784399042,374.3920164225183,1 45100U 20006BJ  26133.38134306  .00031223  00000+0  31060-3 0  9994,2 45100  53.0483 274.8691 0003670 224.5396 135.5324 15.65460481347354
STARLINK-1143,45179,53.0401,3.42e-05,15.80374134,329.1524144258192,329.61120871253024,1 45179U 20012B   26133.37962358  .00124251  00000+0  63838-3 0  9994,2 45179  53.0401   9.4097 0000342 269.6442  90.4540 15.80374134346092
STARLINK-1202,45183,53.156,0.0003109,15.32675098,465.7064073578513,469.96323263552495,1 45183U 20012F   26133.19454860  .00026670  00000+0  84207-3 0  9992,2 45183  53.1560  99.3524 0003109  79.5984 280.5368 15.32675098344830
STARLINK-1216,45185,53.1559,0.0003106,15.32948898,464.89351740475195,469.14572869899166,1 45185U 20012H   26133.17835991  .00027463  00000+0  85928-3 0  9992,2 45185  53.1559  99.3341 0003106  80.6609 279.4744 15.32948898344770
STARLINK-1225,45187,53.1568,0.0002746,15.3291647,465.23645319519164,468.99586623050527,1 45187U 20012K   26133.89337923  .00035829  00000+0  11175-2 0  9992,2 45187  53.1568  96.4513 0002746  79.5302 280.6009 15.32916470344923
